JILIN-1 07              
1 43159U 18008E   26195.60362903  .00005138  00000+0  15275-3 0  9990
2 43159  97.1762 214.8079 0006785 330.7047  29.3816 15.35158511469202
JILIN-1 08              
1 43160U 18008F   26195.62322278  .00003504  00000+0  10879-3 0  9995
2 43160  97.1799 214.1123 0005370 354.9766   5.1423 15.34006328469159
S-NET D                 
1 43186U 18014G   26195.64155642  .00002526  00000+0  13158-3 0  9997
2 43186  97.5336 100.2620 0006267 287.3690  72.6857 15.16914930462921
S-NET B                 
1 43187U 18014H   26195.58758271  .00002480  00000+0  12935-3 0  9999
2 43187  97.5341 100.1957 0006862 281.2519  78.7942 15.16884355462912
S-NET A                 
1 43188U 18014J   26195.64028261  .00002467  00000+0  12855-3 0  9992
2 43188  97.5351 100.4624 0006739 282.2529  77.7949 15.16922932462924
S-NET C                 
1 43189U 18014K   26195.45967154  .00002485  00000+0  12959-3 0  9990
2 43189  97.5369 100.3615 0008148 273.4828  86.5473 15.16874825461446
PAZ                     
1 43215U 18020A   26195.57408089  .00000960  00000+0  48906-4 0  9995
2 43215  97.4454 202.5708 0001687  89.7348 270.4080 15.19156608465160
GOES 17                 
1 43226U 18022A   26195.54134034 -.00000191  00000+0  00000+0 0  9997
2 43226   1.0051  85.2664 0000537  83.1640 229.3588  1.00271123 30696
LKW-4                   
1 43236U 18025A   26195.53786728  .00029974  00000+0  31254-3 0  9991
2 43236  97.6348   8.6034 0003384 185.8944 174.2275 15.64488285464301
ZHUHAI-1 OVS-02         
1 43440U 18040B   26195.58981171  .00004563  00000+0  18343-3 0  9990
2 43440  97.0379 211.1990 0005016 136.8945 223.2687 15.25373340456898
ZHUHAI-1 OHS-02         
1 43441U 18040C   26195.62482310  .00004481  00000+0  17524-3 0  9996
2 43441  97.0359 218.1989 0011175 126.9161 233.3104 15.26262498118461
GAOFEN-6                
1 43484U 18048A   26195.58650247  .00000291  00000+0  49461-4 0  9993
2 43484  98.0965 258.2869 0012135  83.3783 276.8807 14.76382979437431
LUOJIA-1 01             
1 43485U 18048B   26195.62271113  .00001004  00000+0  11705-3 0  9992
2 43485  97.8105 273.3701 0009783  39.0845 321.1077 14.87379297438299
PAKTES 1A               
1 43529U 18056A   26195.57051181  .00001259  00000+0  10834-3 0  9999
2 43529  98.1282 353.2254 0019877  21.9181 338.2887 14.99203732436027
PRSS-1                  
1 43530U 18056B   26195.60187303  .00000537  00000+0  74136-4 0  9995
2 43530  97.7814 262.7112 0001264  86.0735 274.0623 14.82028139432490
HAIYANG-1C              
1 43609U 18068A   26195.59334340  .00000439  00000+0  17223-3 0  9992
2 43609  98.5189 267.5038 0011246  20.1351 340.0276 14.34187859411010
SSTL S1-4               
1 43618U 18071A   26195.64212813  .00000380  00000+0  38491-4 0  9998
2 43618  97.4992  66.1091 0002149  98.3668 261.7798 14.96202179427041
HAIYANG-2B              
1 43655U 18081A   26195.58263751 -.00000155  00000+0 -10835-3 0  9993
2 43655  99.3285 203.9255 0000864 148.3441 211.7764 13.79306044388701
CFOSAT                  
1 43662U 18083A   26195.60964836  .00001767  00000+0  93978-4 0  9996
2 43662  97.3616 199.3351 0001864  75.9612 284.1829 15.16533593426596
TEN-KOH                 
1 43677U 18084G   26195.48611413  .00001770  00000+0  13626-3 0  9994
2 43677  98.0757  28.9976 0009901  32.4073 327.7758 15.03043848420263
DIWATA-2B               
1 43678U 18084H   26195.57747503  .00001212  00000+0  10111-3 0  9992
2 43678  98.1215  32.9852 0012863  86.3601 273.9092 15.00562153420320
STARS-AO                
1 43679U 18084J   26195.57563626  .00002961  00000+0  15224-3 0  9997
2 43679  98.0471  51.2368 0003607  82.2451 277.9190 15.17340960421629
AUTCUBE 2               
1 43681U 18084K   26195.52887073  .00002255  00000+0  14212-3 0  9992
2 43681  98.0689  43.1539 0007891 317.1706  42.8906 15.10262132421053
METOP-C                 
1 43689U 18087A   26195.58945123  .00000042  00000+0  39198-4 0  9993
2 43689  98.6631 254.6902 0002222  94.5008 265.6424 14.21518939398728
ES'HAIL 2               
1 43700U 18090A   26195.56413378  .00000136  00000+0  00000+0 0  9990
2 43700   0.0181  37.1060 0002174 122.1266   2.0566  1.00270535 27952
MOHAMMED VI-B           
1 43717U 18095A   26195.61241752  .00000270  00000+0  45478-4 0  9996
2 43717  97.9555 267.5581 0001752  93.1011 267.0399 14.77080754412239
HYSIS                   
1 43719U 18096A   26195.61802578  .00001131  00000+0  16142-3 0  9990
2 43719  97.9836 262.1492 0001857  84.0998 276.0425 14.78671422411478
COSMOS 2530 (RODNIK-S *)
1 43751U 18097A   26195.58482182 -.00000005  00000+0 -10721-3 0  9996
2 43751  82.5118 205.2768 0018990 340.3604  19.6742 12.42881927345694
COSMOS 2531 (RODNIK-S *)
1 43752U 18097B   26195.60641959  .00000058  00000+0  34620-3 0  9999
2 43752  82.5163 206.3311 0016623   0.3417 359.7671 12.42913460345717
