OBJECT_NAME,OBJECT_ID,EPOCH,MEAN_MOTION,ECCENTRICITY,INCLINATION,RA_OF_ASC_NODE,ARG_OF_PERICENTER,MEAN_ANOMALY,EPHEMERIS_TYPE,CLASSIFICATION_TYPE,NORAD_CAT_ID,ELEMENT_SET_NO,REV_AT_EPOCH,BSTAR,MEAN_MOTION_DOT,MEAN_MOTION_DDOT
JILIN-1 07,2018-008E,2026-07-14T14:29:13.548192,15.35158511,.00067855,97.1762,214.8079,330.7047,29.3816,0,U,43159,999,46920,.15275312E-3,.5138E-4,0
JILIN-1 08,2018-008F,2026-07-14T14:57:26.448192,15.34006328,.00053706,97.1799,214.1123,354.9766,5.1423,0,U,43160,999,46915,.10879215E-3,.3504E-4,0
S-NET D,2018-014G,2026-07-14T15:23:50.474688,15.16914930,.00062679,97.5336,100.2620,287.3690,72.6857,0,U,43186,999,46292,.1315805E-3,.2526E-4,0
S-NET B,2018-014H,2026-07-14T14:06:07.146144,15.16884355,.00068621,97.5341,100.1957,281.2519,78.7942,0,U,43187,999,46291,.12935473E-3,.248E-4,0
S-NET A,2018-014J,2026-07-14T15:22:00.417504,15.16922932,.00067397,97.5351,100.4624,282.2529,77.7949,0,U,43188,999,46292,.12855141E-3,.2467E-4,0
S-NET C,2018-014K,2026-07-14T11:01:55.621056,15.16874825,.00081489,97.5369,100.3615,273.4828,86.5473,0,U,43189,999,46144,.12959114E-3,.2485E-4,0
PAZ,2018-020A,2026-07-14T13:46:40.588896,15.19156608,.00016878,97.4454,202.5708,89.7348,270.4080,0,U,43215,999,46516,.48905923E-4,.96E-5,0
GOES 17,2018-022A,2026-07-14T12:59:31.805376,1.00271123,.00005379,1.0051,85.2664,83.1640,229.3588,0,U,43226,999,3069,0,-.191E-5,0
LKW-4,2018-025A,2026-07-14T12:54:31.732992,15.64488285,.00033841,97.6348,8.6034,185.8944,174.2275,0,U,43236,999,46430,.31253955E-3,.29974E-3,0
ZHUHAI-1 OVS-02,2018-040B,2026-07-14T14:09:19.731744,15.25373340,.00050163,97.0379,211.1990,136.8945,223.2687,0,U,43440,999,45689,.18342511E-3,.4563E-4,0
ZHUHAI-1 OHS-02,2018-040C,2026-07-14T14:59:44.715840,15.26262498,.00111752,97.0359,218.1989,126.9161,233.3104,0,U,43441,999,11846,.17523751E-3,.4481E-4,0
GAOFEN-6,2018-048A,2026-07-14T14:04:33.813408,14.76382979,.00121355,98.0965,258.2869,83.3783,276.8807,0,U,43484,999,43743,.49460565E-4,.291E-5,0
LUOJIA-1 01,2018-048B,2026-07-14T14:56:42.241632,14.87379297,.00097835,97.8105,273.3701,39.0845,321.1077,0,U,43485,999,43829,.11704918E-3,.1004E-4,0
PAKTES 1A,2018-056A,2026-07-14T13:41:32.220384,14.99203732,.00198775,98.1282,353.2254,21.9181,338.2887,0,U,43529,999,43602,.10833857E-3,.1259E-4,0
PRSS-1,2018-056B,2026-07-14T14:26:41.829792,14.82028139,.00012645,97.7814,262.7112,86.0735,274.0623,0,U,43530,999,43249,.74135897E-4,.537E-5,0
HAIYANG-1C,2018-068A,2026-07-14T14:14:24.869760,14.34187859,.00112463,98.5189,267.5038,20.1351,340.0276,0,U,43609,999,41101,.17223162E-3,.439E-5,0
SSTL S1-4,2018-071A,2026-07-14T15:24:39.870432,14.96202179,.00021492,97.4992,66.1091,98.3668,261.7798,0,U,43618,999,42704,.38490819E-4,.38E-5,0
HAIYANG-2B,2018-081A,2026-07-14T13:58:59.880864,13.79306044,.00008643,99.3285,203.9255,148.3441,211.7764,0,U,43655,999,38870,-.10835194E-3,-.155E-5,0
CFOSAT,2018-083A,2026-07-14T14:37:53.618304,15.16533593,.00018649,97.3616,199.3351,75.9612,284.1829,0,U,43662,999,42659,.9397769E-4,.1767E-4,0
TEN-KOH,2018-084G,2026-07-14T11:40:00.260832,15.03043848,.00099017,98.0757,28.9976,32.4073,327.7758,0,U,43677,999,42026,.13625833E-3,.177E-4,0
DIWATA-2B,2018-084H,2026-07-14T13:51:33.842592,15.00562153,.00128637,98.1215,32.9852,86.3601,273.9092,0,U,43678,999,42032,.10110801E-3,.1212E-4,0
STARS-AO,2018-084J,2026-07-14T13:48:54.972864,15.17340960,.00036077,98.0471,51.2368,82.2451,277.9190,0,U,43679,999,42162,.15223592E-3,.2961E-4,0
AUTCUBE 2,2018-084K,2026-07-14T12:41:34.431072,15.10262132,.00078913,98.0689,43.1539,317.1706,42.8906,0,U,43681,999,42105,.14211843E-3,.2255E-4,0
METOP-C,2018-087A,2026-07-14T14:08:48.586272,14.21518939,.0002222,98.6631,254.6902,94.5008,265.6424,0,U,43689,999,39872,.39197883E-4,.42E-6,0
ES'HAIL 2,2018-090A,2026-07-14T13:32:21.158592,1.00270535,.00021743,0.0181,37.1060,122.1266,2.0566,0,U,43700,999,2795,0,.136E-5,0
MOHAMMED VI-B,2018-095A,2026-07-14T14:41:52.873728,14.77080754,.00017526,97.9555,267.5581,93.1011,267.0399,0,U,43717,999,41223,.45478361E-4,.27E-5,0
HYSIS,2018-096A,2026-07-14T14:49:57.427392,14.78671422,.00018574,97.9836,262.1492,84.0998,276.0425,0,U,43719,999,41147,.16141784E-3,.1131E-4,0
COSMOS 2530 (RODNIK-S 16),2018-097A,2026-07-14T14:02:08.605248,12.42881927,.00189909,82.5118,205.2768,340.3604,19.6742,0,U,43751,999,34569,-.10721139E-3,-.5E-7,0
COSMOS 2531 (RODNIK-S 17),2018-097B,2026-07-14T14:33:14.652576,12.42913460,.00166231,82.5163,206.3311,0.3417,359.7671,0,U,43752,999,34571,.34619613E-3,.58E-6,0
